GLOBALSTAR M069         
1 31573U 07020C   26197.29278969 -.00000116  00000+0 -21630-3 0  9999
2 31573  52.0010 169.7453 0001635 213.0270 286.2582 12.23472221882360
GLOBALSTAR M072         
1 31574U 07020D   26197.01483994 -.00000072  00000+0  17034-3 0  9999
2 31574  51.9949  23.4984 0001654  37.1365 132.9551 11.91658844878411
GLOBALSTAR M066         
1 32265U 07048C   26197.30883654 -.00000047  00000+0  40403-3 0  9994
2 32265  51.9608 334.3135 0005581 104.0043 262.0629 12.30389552863813
GLOBALSTAR M079         
1 37188U 10054A   26196.89887795 -.00000104  00000+0 -28003-5 0  9996
2 37188  52.0055  21.2674 0001129  78.9268  67.7048 12.62266431726179
GLOBALSTAR M074         
1 37189U 10054B   26196.92915833 -.00000103  00000+0  68052-5 0  9992
2 37189  52.0032  20.4362 0000869  93.4873  70.7747 12.62262033726785
GLOBALSTAR M076         
1 37190U 10054C   26196.76380812 -.00000096  00000+0  46166-4 0  9991
2 37190  52.0044  21.1451 0001095  93.6543 278.7739 12.62262357726482
GLOBALSTAR M077         
1 37191U 10054D   26197.16575054 -.00000102  00000+0 -43765-3 0  9991
2 37191  51.9960 105.7432 0002251 226.9989 281.7118 11.67547416724520
GLOBALSTAR M075         
1 37192U 10054E   26197.12820792 -.00000090  00000+0  78030-4 0  9999
2 37192  51.9955  62.0736 0000766  65.7269 103.9288 12.62267845725598
GLOBALSTAR M073         
1 37193U 10054F   26196.81062972 -.00000104  00000+0 -30190-5 0  9996
2 37193  52.0081 337.1636 0001063  96.8782  67.2732 12.62266879727541
GLOBALSTAR M083         
1 37739U 11033A   26197.27011390 -.00000072  00000+0  17759-3 0  9996
2 37739  51.9864 283.9552 0000750 107.7972 286.6083 12.62264232696625
GLOBALSTAR M088         
1 37740U 11033B   26197.17492477 -.00000118  00000+0 -82049-4 0  9993
2 37740  52.0189 190.7411 0000051  88.0471 352.3077 12.62269486692151
GLOBALSTAR M091         
1 37741U 11033C   26197.28560834 -.00000116  00000+0 -70997-4 0  9996
2 37741  51.9982 153.3263 0000447  25.5454 138.6067 12.62264248692950
GLOBALSTAR M085         
1 37742U 11033D   26197.19112476 -.00000091  00000+0  70669-4 0  9999
2 37742  52.0125 104.9316 0000797  42.5641 112.0435 12.62264349693451
GLOBALSTAR M081         
1 37743U 11033E   26197.21965053 -.00000100  00000+0  23299-4 0  9998
2 37743  51.9954 107.2477 0000689  55.7416 108.4066 12.62265279693609
GLOBALSTAR M089         
1 37744U 11033F   26197.01748539 -.00000090  00000+0  76028-4 0  9991
2 37744  51.9936  62.0166 0000701  90.3918  55.7492 12.62267580694425
GLOBALSTAR M084         
1 38040U 11080A   26196.46204899 -.00000085  00000+0  10404-3 0  9996
2 38040  52.0021 291.2057 0000824 129.9842 310.7473 12.62263504672339
GLOBALSTAR M080         
1 38041U 11080B   26197.29434700 -.00000079  00000+0  14066-3 0  9996
2 38041  52.0068 290.4004 0000290  81.1357 313.3057 12.62257491672561
GLOBALSTAR M082         
1 38042U 11080C   26197.15154896 -.00000077  00000+0  15136-3 0  9994
2 38042  52.0061 246.3389 0000189  83.9753 311.2190 12.62264282673256
GLOBALSTAR M092         
1 38043U 11080D   26196.83693785 -.00000088  00000+0  88256-4 0  9990
2 38043  52.0105 337.6936 0000779 103.6458  60.5815 12.62267811671667
GLOBALSTAR M090         
1 38044U 11080E   26196.31700969 -.00000053  00000+0  28459-3 0  9997
2 38044  52.0106 242.8440 0000427  91.1185 348.7415 12.62269578673261
GLOBALSTAR M086         
1 38045U 11080F   26197.11643383 -.00000091  00000+0  70587-4 0  9995
2 38045  51.9877 240.2921 0001497 113.1498 264.9646 12.62287791673319
GLOBALSTAR M097         
1 39072U 13005A   26197.06506689 -.00000127  00000+0 -12859-3 0  9994
2 39072  52.0027 155.4281 0000460  40.9280 319.1621 12.62271364620553
GLOBALSTAR M093         
1 39073U 13005B   26197.27585676 -.00000114  00000+0 -54395-4 0  9999
2 39073  52.0089 148.1445 0000681  45.9668 314.1255 12.62266320620535
GLOBALSTAR M094         
1 39074U 13005C   26197.03816030 -.00000087  00000+0  91638-4 0  9994
2 39074  51.9970  62.9567 0001018  64.0389 296.0582 12.62264172622118
GLOBALSTAR M096         
1 39075U 13005D   26197.13087083 -.00000094  00000+0  53762-4 0  9998
2 39075  52.0071 111.4982 0000764  44.1269 315.9659 12.62265718621041
GLOBALSTAR M078         
1 39076U 13005E   26197.18318524 -.00000123  00000+0 -10859-3 0  9994
2 39076  51.9845 195.3095 0000854 340.9626  19.1209 12.62260137619679
GLOBALSTAR M095         
1 39077U 13005F   26197.13067886 -.00000123  00000+0 -10617-3 0  9994
2 39077  52.0053 193.1140 0000474  14.2111 345.8769 12.62264131619520
GLOBALSTAR M087         
1 52888U 22064A   26196.66868377 -.00000103  00000+0  43333-5 0  9995
2 52888  52.0013 335.7423 0000918  85.2007 274.8964 12.62269258194738
