OBJECT_NAME,OBJECT_ID,EPOCH,MEAN_MOTION,ECCENTRICITY,INCLINATION,RA_OF_ASC_NODE,ARG_OF_PERICENTER,MEAN_ANOMALY,EPHEMERIS_TYPE,CLASSIFICATION_TYPE,NORAD_CAT_ID,ELEMENT_SET_NO,REV_AT_EPOCH,BSTAR,MEAN_MOTION_DOT,MEAN_MOTION_DDOT
GLOBALSTAR M069,2007-020C,2026-07-16T07:01:37.029216,12.23472221,.00016354,52.0010,169.7453,213.0270,286.2582,0,U,31573,999,88236,-.21629915E-3,-.116E-5,0
GLOBALSTAR M072,2007-020D,2026-07-16T00:21:22.170816,11.91658844,.00016547,51.9949,23.4984,37.1365,132.9551,0,U,31574,999,87841,.17033849E-3,-.72E-6,0
GLOBALSTAR M066,2007-048C,2026-07-16T07:24:43.477056,12.30389552,.00055817,51.9608,334.3135,104.0043,262.0629,0,U,32265,999,86381,.40402959E-3,-.47E-6,0
GLOBALSTAR M079,2010-054A,2026-07-15T21:34:23.054880,12.62266431,.0001129,52.0055,21.2674,78.9268,67.7048,0,U,37188,999,72617,-.28003E-5,-.104E-5,0
GLOBALSTAR M074,2010-054B,2026-07-15T22:17:59.279712,12.62262033,.0000869,52.0032,20.4362,93.4873,70.7747,0,U,37189,999,72678,.68052E-5,-.103E-5,0
GLOBALSTAR M076,2010-054C,2026-07-15T18:19:53.021568,12.62262357,.00010953,52.0044,21.1451,93.6543,278.7739,0,U,37190,999,72648,.46166245E-4,-.96E-6,0
GLOBALSTAR M077,2010-054D,2026-07-16T03:58:40.846656,11.67547416,.00022511,51.9960,105.7432,226.9989,281.7118,0,U,37191,999,72452,-.43764937E-3,-.102E-5,0
GLOBALSTAR M075,2010-054E,2026-07-16T03:04:37.164288,12.62267845,.00007668,51.9955,62.0736,65.7269,103.9288,0,U,37192,999,72559,.78029737E-4,-.9E-6,0
GLOBALSTAR M073,2010-054F,2026-07-15T19:27:18.407808,12.62266879,.0001063,52.0081,337.1636,96.8782,67.2732,0,U,37193,999,72754,-.3019E-5,-.104E-5,0
GLOBALSTAR M083,2011-033A,2026-07-16T06:28:57.840960,12.62264232,.00007508,51.9864,283.9552,107.7972,286.6083,0,U,37739,999,69662,.177594E-3,-.72E-6,0
GLOBALSTAR M088,2011-033B,2026-07-16T04:11:53.500128,12.62269486,.00000513,52.0189,190.7411,88.0471,352.3077,0,U,37740,999,69215,-.82049473E-4,-.118E-5,0
GLOBALSTAR M091,2011-033C,2026-07-16T06:51:16.560576,12.62264248,.00004474,51.9982,153.3263,25.5454,138.6067,0,U,37741,999,69295,-.70996779E-4,-.116E-5,0
GLOBALSTAR M085,2011-033D,2026-07-16T04:35:13.179264,12.62264349,.00007979,52.0125,104.9316,42.5641,112.0435,0,U,37742,999,69345,.70668979E-4,-.91E-6,0
GLOBALSTAR M081,2011-033E,2026-07-16T05:16:17.805792,12.62265279,.00006891,51.9954,107.2477,55.7416,108.4066,0,U,37743,999,69360,.23298505E-4,-.1E-5,0
GLOBALSTAR M089,2011-033F,2026-07-16T00:25:10.737696,12.62267580,.00007015,51.9936,62.0166,90.3918,55.7492,0,U,37744,999,69442,.76027946E-4,-.9E-6,0
GLOBALSTAR M084,2011-080A,2026-07-15T11:05:21.032736,12.62263504,.00008243,52.0021,291.2057,129.9842,310.7473,0,U,38040,999,67233,.10404154E-3,-.85E-6,0
GLOBALSTAR M080,2011-080B,2026-07-16T07:03:51.580800,12.62257491,.00002908,52.0068,290.4004,81.1357,313.3057,0,U,38041,999,67256,.14066304E-3,-.79E-6,0
GLOBALSTAR M082,2011-080C,2026-07-16T03:38:13.830144,12.62264282,.00001894,52.0061,246.3389,83.9753,311.2190,0,U,38042,999,67325,.15136212E-3,-.77E-6,0
GLOBALSTAR M092,2011-080D,2026-07-15T20:05:11.430240,12.62267811,.00007791,52.0105,337.6936,103.6458,60.5815,0,U,38043,999,67166,.88256051E-4,-.88E-6,0
GLOBALSTAR M090,2011-080E,2026-07-15T07:36:29.637216,12.62269578,.00004273,52.0106,242.8440,91.1185,348.7415,0,U,38044,999,67326,.28459492E-3,-.53E-6,0
GLOBALSTAR M086,2011-080F,2026-07-16T02:47:39.882912,12.62287791,.00014972,51.9877,240.2921,113.1498,264.9646,0,U,38045,999,67331,.70587221E-4,-.91E-6,0
GLOBALSTAR M097,2013-005A,2026-07-16T01:33:41.779296,12.62271364,.00004604,52.0027,155.4281,40.9280,319.1621,0,U,39072,999,62055,-.12859116E-3,-.127E-5,0
GLOBALSTAR M093,2013-005B,2026-07-16T06:37:14.024064,12.62266320,.00006818,52.0089,148.1445,45.9668,314.1255,0,U,39073,999,62053,-.54394758E-4,-.114E-5,0
GLOBALSTAR M094,2013-005C,2026-07-16T00:54:57.049920,12.62264172,.00010186,51.9970,62.9567,64.0389,296.0582,0,U,39074,999,62211,.91638464E-4,-.87E-6,0
GLOBALSTAR M096,2013-005D,2026-07-16T03:08:27.239712,12.62265718,.00007648,52.0071,111.4982,44.1269,315.9659,0,U,39075,999,62104,.53761588E-4,-.94E-6,0
GLOBALSTAR M078,2013-005E,2026-07-16T04:23:47.204736,12.62260137,.0000854,51.9845,195.3095,340.9626,19.1209,0,U,39076,999,61967,-.10858678E-3,-.123E-5,0
GLOBALSTAR M095,2013-005F,2026-07-16T03:08:10.653504,12.62264131,.00004742,52.0053,193.1140,14.2111,345.8769,0,U,39077,999,61952,-.10617235E-3,-.123E-5,0
GLOBALSTAR M087,2022-064A,2026-07-15T16:02:54.277728,12.62269258,.00009182,52.0013,335.7423,85.2007,274.8964,0,U,52888,999,19473,.4333312E-5,-.103E-5,0
